0262P         2030 12 10.7255  1.264758  0.815987  171.0298  217.8725   29.2530  20220223  13.5  4.0  262P/McNaught-Russell                                    MPC 82322
0263P         2023 01 30.5445  1.237478  0.593507   34.9266  105.5533   11.5212  20220223   9.0  4.0  263P/Gibbs                                               MPC 89018
0264P         2019 08  4.5090  2.430127  0.375362  346.7197  220.4652   25.2043  20220223  13.0  4.0  264P/Larsen                                              MPC114608
0265P         2021 02  9.0924  1.499287  0.647562   33.4530  342.9259   14.3650  20220223  14.5  4.0  265P/LINEAR                                              MPC 79870
0266P         2020 04 19.2307  2.333332  0.339552   97.7278    4.9981    3.4270  20220223  14.7  4.0  266P/Christensen                                         MPEC 2021-F20
0267P         2024 04 24.6036  1.238407  0.614379  114.1908  228.5922    6.1407  20220223  19.5  4.0  267P/LONEOS                                              MPC114608
0268P         2024 12 21.9919  2.376963  0.477812  359.8081  127.2595   15.9740  20220223  14.0  4.0  268P/Bernardi                                            MPC 92277
0269P         2014 09 29.0377  4.025796  0.430838  225.7818  241.7229    7.0762  20220223  10.0  4.0  269P/Jedicke                                             MPC104795
0270P         2030 08 19.7812  3.543583  0.468141  209.7879  223.0009    2.9218  20220223   8.0  4.0  270P/Gehrels                                             MPC 88332
0271P         2013 07 14.3294  4.259730  0.394923   36.3861    9.3159    6.8718  20220223  11.0  4.0  271P/van Houten-Lemmon                                   MPC 92277
0272P         2022 07 17.0820  2.432151  0.454587   27.9056  109.4703   18.0749  20220223  16.0  2.0  272P/NEAT                                                MPEC 2022-C56
0273P         2012 12 19.6288  0.823027  0.974203   20.3273  320.4000  136.7725  20220223  11.5  4.0  273P/Pons-Gambart                                        MPC 82723
0274P         2022 04  8.4739  2.453165  0.439298   38.4710   81.3405   15.8161  20220223  13.0  4.0  274P/Tombaugh-Tenagra                                    MPEC 2022-D36
0275P         2026 11  1.3014  1.659987  0.712546  174.0218  348.7577   21.2760  20220223  17.0  4.0  275P/Hermann                                             MPC 81862
0276P         2024 12 14.1049  3.897703  0.267494  199.5997  211.3703   14.8101  20220223  11.5  4.0  276P/Vorobjov                                            MPEC 2020-K19
0277P         2020 12 30.2001  1.904114  0.505880  152.3188  276.3335   16.7768  20220223  15.1  4.0  277P/LINEAR                                              MPEC 2021-F20
0278P         2020 09 11.6967  2.081510  0.435889  237.8737   15.3813    6.6949  20220223  14.0  4.0  278P/McNaught                                            MPEC 2021-S45
0279P         2023 04 19.5735  2.148662  0.398660    5.8365  346.2331    5.0525  20220223  14.0  4.0  279P/La Sagra                                            MPC100285
0280P         2023 08  4.7238  2.639217  0.417397  104.7618  131.3934   11.7742  20220223  12.5  4.0  280P/Larsen                                              MPC 89013
0281P         2023 02  1.8017  4.034484  0.172266   26.6791   87.1802    4.7190  20220223  11.0  4.0  281P/MOSS                                                MPEC 2021-W31
0282P         2021 10 24.6269  3.440999  0.188459  217.6298    9.2969    5.8116  20220223  13.5  2.0  282P                                                     MPC133426
0283P         2021 09  7.9907  2.132158  0.484704   22.2406  161.1288   14.4552  20220223  16.0  2.0  283P/Spacewatch                                          MPEC 2021-BE3
0284P         2021 09 12.6066  2.295642  0.375616  202.4172  144.2625   11.8613  20220223  13.0  4.0  284P/McNaught                                            MPEC 2022-D36
0285P         2023 01 12.3967  1.719412  0.618540  178.4370  185.5067   25.0382  20220223  15.0  4.0  285P/LINEAR                                              MPC 85339
0286P         2022 05 12.6466  2.361009  0.425447   24.8568  283.9570   17.0453  20220223  14.0  4.0  286P/Christensen                                         MPEC 2021-O56
0287P         2023 07  4.5450  3.035227  0.271028  189.0303  139.0426   16.3199  20220223  13.5  4.0  287P/Christensen                                         MPC 96868
0288P         2022 03  2.0111  2.436979  0.201193  280.2807   83.1386    3.2378  20220223  16.0  2.0  288P                                                     MPC133426
0289P         2019 12 20.9976  0.957614  0.685640    9.8488   68.8825    5.8964  20220223  19.0  4.0  289P/Blanpain                                            MPEC 2021-S45
0290P         2029 07 25.7529  2.312196  0.627895  181.8976  302.6845   20.0833  20220223  10.5  4.0  290P/Jager                                               MPC 95214
0291P         2023 05  5.1406  2.560093  0.435548  173.6398  237.8867    6.2989  20220223  13.0  4.0  291P/NEAT                                                MPEC 2021-N06
0292P         2029 03  3.6569  2.509592  0.588922  319.4778   90.9556   24.2733  20220223  12.5  4.0  292P/Li                                                  MPC115887
0293P         2020 12 19.1496  2.119138  0.418240   41.0120   78.4008    9.0573  20220223  14.5  4.0  293P/Spacewatch                                          MPEC 2021-S45
0294P         2019 12  2.6050  1.275772  0.600453  235.3747  312.3199   18.1109  20220223  15.5  4.0  294P/LINEAR                                              MPEC 2020-SI8
0295P         2026 07 24.1873  2.034770  0.616518   72.8780    7.4359   21.0741  20220223  12.0  4.0  295P/LINEAR                                              MPC 93589
0296P         2020 09 17.7085  1.821592  0.478726  350.0518  263.5859   25.2321  20220223  14.0  4.0  296P/Garradd                                             MPEC 2021-N06
0297P         2021 01 23.6184  2.344814  0.319990  132.7487   97.6242   10.3195  20220223  15.0  4.0  297P/Beshore                                             MPC102956
0298P         2020 09  6.1973  2.203229  0.386432  100.6584   52.8221    7.8708  20220223  15.0  4.0  298P/Christensen                                         MPC114609
0299P         2024 05  1.0294  3.153393  0.281134  323.8357  271.6200   10.4708  20220223  11.5  4.0  299P/Catalina-PANSTARRS                                  MPEC 2022-CN4
0300P         2023 04 11.0707  0.832143  0.691761  222.9208   95.6407    5.6741  20220223  16.0  4.0  300P/Catalina                                            MPC114609
0301P         2028 05 25.4971  2.380764  0.585192  193.6444  351.1753   10.3400  20220223  13.0  4.0  301P/LINEAR-NEAT                                         MPC 89014
0302P         2025 03  7.7698  3.290503  0.230280  208.3433  121.7479    6.0338  20220223  12.5  4.0  302P/Lemmon-PANSTARRS                                    MPEC 2020-HN5
0303P         2026 02 18.8269  2.468129  0.510858  356.9257  347.9720    7.0216  20220223  13.5  4.0  303P/NEAT                                                MPC 92278
0304P         2020 08 12.5204  1.258056  0.600707  335.2436   58.9187    2.6070  20220223  16.5  4.0  304P/Ory                                                 MPEC 2020-N08
0305P         2024 11 17.2400  1.422123  0.693669  147.3230  240.1053   11.6585  20220223  18.0  4.0  305P/Skiff                                               MPC101100
0306P         2020 01 23.0405  1.270410  0.593297    0.8630  341.3732    8.3113  20220223  19.0  4.0  306P/LINEAR                                              MPC 92278
0307P         2028 11 29.5027  1.881138  0.675177  222.1327  158.1647    4.4353  20220223  15.0  4.0  307P/LINEAR                                              MPC 92278
0308P         2015 05  8.1809  4.198624  0.364017  333.6069   63.0609    4.8524  20220223  13.0  2.0  308P/Lagerkvist-Carsenty                                 MPEC 2022-C56
0309P         2024 03 29.3232  1.670569  0.617920   49.9412   10.1456   17.0237  20220223  15.0  4.0  309P/LINEAR                                              MPC 94284
0310P         2023 10 24.3953  2.415496  0.422072   31.7946    8.9222   13.1278  20220223  13.5  4.0  310P/Hill                                                MPC 98566
0311P         2020 10  7.3830  1.935360  0.115676  144.5386  279.2161    4.9696  20220223  17.0  4.0  311P/PANSTARRS                                           MPEC 2021-BE3
0312P         2020 09 25.1284  1.984172  0.427873  207.5969  144.6699   19.7679  20220223  16.0  4.0  312P/NEAT                                                MPEC 2021-BE3
0313P         2020 04 15.7504  2.419970  0.235027  254.7682  105.9706   10.9810  20220223  15.0  4.0  313P/Gibbs                                               MPEC 2021-S45
0314P         2016 10  7.3863  4.240721  0.416197  214.0350  267.6080    3.9822  20220223   9.5  4.0  314P/Montani                                             MPC105243
0315P         2016 11 26.4313  2.366057  0.521025   65.7261   68.8387   17.7441  20220223  11.0  4.0  315P/LONEOS                                              MPEC 2021-N06
0316P         2024 11 15.7192  3.688378  0.156195  192.7162  246.4839    9.8291  20220223  13.5  4.0  316P/LONEOS-Christensen                                  MPC 92279
0317P         2020 09 26.0928  1.272722  0.570493  334.8609  275.4948   11.9508  20220223  17.5  4.0  317P/WISE                                                MPEC 2020-C98
0318P         2015 10 25.5772  2.435647  0.675286  313.2470   35.5439   17.8830  20220223   8.5  6.0  318P/McNaught-Hartley                                    MPC102103
0319P         2022 03 31.4333  1.188977  0.666618  203.6784  111.3703   15.0951  20220223  15.0  4.0  319P/Catalina-McNaught                                   MPC 97499
